{"type": "FeatureCollection", "features": [ {"type": "Feature", "properties": {"norad_id": 35284, "name": "COSMOS 2251 DEB", "group": "cosmos-2251-debris", "lat": 29.21073871910416, "lon": -75.24991688439084, "alt_km": 753.0016757339463, "timestamp": "2025-12-06T16:45:43.117592+00:00", "meta": {"OBJECT_NAME": "COSMOS 2251 DEB", "OBJECT_ID": "1993-036AJN", "EPOCH": "2025-12-04T04:49:40.154016", "MEAN_MOTION": 14.38302893, "ECCENTRICITY": 0.0016445, "INCLINATION": 74.0489, "RA_OF_ASC_NODE": 280.1443, "ARG_OF_PERICENTER": 358.2781, "MEAN_ANOMALY": 66.8763, "EPHEMERIS_TYPE": 0, "CLASSIFICATION_TYPE": "U", "NORAD_CAT_ID": 35284, "ELEMENT_SET_NO": 999, "REV_AT_EPOCH": 65403, "BSTAR": 0.00035677, "MEAN_MOTION_DOT": 1.061e-05, "MEAN_MOTION_DDOT": 0}, "tle": {"line1": "1 35284U 93036AJN 25338.20115919  .00001061  00000+0  35677-3 0  9990", "line2": "2 35284  74.0489 280.1443 0016445 358.2781  66.8763 14.38302893654037"}}, "geometry": {"type": "Point", "coordinates": [-75.24991688439084, 29.21073871910416]}}, {"type": "Feature", "properties": {"norad_id": 35287, "name": "COSMOS 2251 DEB", "group": "cosmos-2251-debris", "lat": -63.19158697745103, "lon": 141.75765522264382, "alt_km": 786.4567165244835, "timestamp": "2025-12-06T16:45:43.117602+00:00", "meta": {"OBJECT_NAME": "COSMOS 2251 DEB", "OBJECT_ID": "1993-036AJR", "EPOCH": "2025-12-05T15:21:41.888160", "MEAN_MOTION": 14.36366268, "ECCENTRICITY": 0.00172627, "INCLINATION": 74.03, "RA_OF_ASC_NODE": 289.1814, "ARG_OF_PERICENTER": 27.8531, "MEAN_ANOMALY": 149.9879, "EPHEMERIS_TYPE": 0, "CLASSIFICATION_TYPE": "U", "NORAD_CAT_ID": 35287, "ELEMENT_SET_NO": 999, "REV_AT_EPOCH": 86790, "BSTAR": 0.00027832351, "MEAN_MOTION_DOT": 7.9e-06, "MEAN_MOTION_DDOT": 0}, "tle": {"line1": "1 35287U 93036AJR 25339.64006815  .00000790  00000+0  27832-3 0  9998", "line2": "2 35287  74.0300 289.1814 0017262  27.8531 149.9879 14.36366268867900"}}, "geometry": {"type": "Point", "coordinates": [141.75765522264382, -63.19158697745103]}}, {"type": "Feature", "properties": {"norad_id": 35288, "name": "COSMOS 2251 DEB", "group": "cosmos-2251-debris", "lat": 49.618055259454394, "lon": -172.91820916232524, "alt_km": 690.2492928108795, "timestamp": "2025-12-06T16:45:43.117612+00:00", "meta": {"OBJECT_NAME": "COSMOS 2251 DEB", "OBJECT_ID": "1993-036AJS", "EPOCH": "2025-12-05T20:30:59.855616", "MEAN_MOTION": 14.65344236, "ECCENTRICITY": 0.00396154, "INCLINATION": 73.9509, "RA_OF_ASC_NODE": 28.4958, "ARG_OF_PERICENTER": 262.8912, "MEAN_ANOMALY": 96.775, "EPHEMERIS_TYPE": 0, "CLASSIFICATION_TYPE": "U", "NORAD_CAT_ID": 35288, "ELEMENT_SET_NO": 999, "REV_AT_EPOCH": 87777, "BSTAR": 0.0019659658, "MEAN_MOTION_DOT": 0.00010724, "MEAN_MOTION_DDOT": 0}, "tle": {"line1": "1 35288U 93036AJS 25339.85485944  .00010724  00000+0  19660-2 0  9993", "line2": "2 35288  73.9509  28.4958 0039615 262.8912  96.7750 14.65344236877779"}}, "geometry": {"type": "Point", "coordinates": [-172.91820916232524, 49.618055259454394]}}, {"type": "Feature", "properties": {"norad_id": 35290, "name": "COSMOS 2251 DEB", "group": "cosmos-2251-debris", "lat": 73.12706531202508, "lon": 142.38347413167466, "alt_km": 622.682021679544, "timestamp": "2025-12-06T16:45:43.117623+00:00", "meta": {"OBJECT_NAME": "COSMOS 2251 DEB", "OBJECT_ID": "1993-036AJU", "EPOCH": "2025-12-05T22:32:12.468480", "MEAN_MOTION": 14.80062552, "ECCENTRICITY": 0.00031157, "INCLINATION": 74.0062, "RA_OF_ASC_NODE": 72.8591, "ARG_OF_PERICENTER": 204.7419, "MEAN_ANOMALY": 155.3609, "EPHEMERIS_TYPE": 0, "CLASSIFICATION_TYPE": "U", "NORAD_CAT_ID": 35290, "ELEMENT_SET_NO": 999, "REV_AT_EPOCH": 87857, "BSTAR": 0.0032907713, "MEAN_MOTION_DOT": 0.00024997, "MEAN_MOTION_DDOT": 0}, "tle": {"line1": "1 35290U 93036AJU 25339.93903320  .00024997  00000+0  32908-2 0  9995", "line2": "2 35290  74.0062  72.8591 0003115 204.7419 155.3609 14.80062552878576"}}, "geometry": {"type": "Point", "coordinates": [142.38347413167466, 73.12706531202508]}}, {"type": "Feature", "properties": {"norad_id": 35432, "name": "COSMOS 2251 DEB", "group": "cosmos-2251-debris", "lat": 48.33133437568793, "lon": -170.51446115786283, "alt_km": 504.5081360225904, "timestamp": "2025-12-06T16:45:43.117632+00:00", "meta": {"OBJECT_NAME": "COSMOS 2251 DEB", "OBJECT_ID": "1993-036AKA", "EPOCH": "2025-12-05T13:21:29.827872", "MEAN_MOTION": 15.20593874, "ECCENTRICITY": 0.00121086, "INCLINATION": 74.0213, "RA_OF_ASC_NODE": 30.6647, "ARG_OF_PERICENTER": 349.9556, "MEAN_ANOMALY": 10.1398, "EPHEMERIS_TYPE": 0, "CLASSIFICATION_TYPE": "U", "NORAD_CAT_ID": 35432, "ELEMENT_SET_NO": 999, "REV_AT_EPOCH": 87394, "BSTAR": 0.0094993617, "MEAN_MOTION_DOT": 0.00214796, "MEAN_MOTION_DDOT": 0}, "tle": {"line1": "1 35432U 93036AKA 25339.55659523  .00214796  00000+0  94994-2 0  9995", "line2": "2 35432  74.0213  30.6647 0012108 349.9556  10.1398 15.20593874873942"}}, "geometry": {"type": "Point", "coordinates": [-170.51446115786283, 48.33133437568793]}}, {"type": "Feature", "properties": {"norad_id": 35433, "name": "COSMOS 2251 DEB", "group": "cosmos-2251-debris", "lat": 39.65037853228775, "lon": 3.241389788821142, "alt_km": 754.3912554501449, "timestamp": "2025-12-06T16:45:43.117642+00:00", "meta": {"OBJECT_NAME": "COSMOS 2251 DEB", "OBJECT_ID": "1993-036AKB", "EPOCH": "2025-12-05T19:38:16.327392", "MEAN_MOTION": 14.34730306, "ECCENTRICITY": 0.00254596, "INCLINATION": 74.0335, "RA_OF_ASC_NODE": 351.128, "ARG_OF_PERICENTER": 48.4343, "MEAN_ANOMALY": 128.9694, "EPHEMERIS_TYPE": 0, "CLASSIFICATION_TYPE": "U", "NORAD_CAT_ID": 35433, "ELEMENT_SET_NO": 999, "REV_AT_EPOCH": 86481, "BSTAR": 0.00044039966, "MEAN_MOTION_DOT": 1.226e-05, "MEAN_MOTION_DDOT": 0}, "tle": {"line1": "1 35433U 93036AKB 25339.81824453  .00001226  00000+0  44040-3 0  9991", "line2": "2 35433  74.0335 351.1280 0025459  48.4343 128.9694 14.34730306864810"}}, "geometry": {"type": "Point", "coordinates": [3.241389788821142, 39.65037853228775]}}, {"type": "Feature", "properties": {"norad_id": 35434, "name": "COSMOS 2251 DEB", "group": "cosmos-2251-debris", "lat": 25.728940654920574, "lon": 36.60188938154251, "alt_km": 855.447810938289, "timestamp": "2025-12-06T16:45:43.117652+00:00", "meta": {"OBJECT_NAME": "COSMOS 2251 DEB", "OBJECT_ID": "1993-036AKC", "EPOCH": "2025-12-06T00:52:57.349632", "MEAN_MOTION": 14.25656227, "ECCENTRICITY": 0.00876297, "INCLINATION": 74.0405, "RA_OF_ASC_NODE": 225.7219, "ARG_OF_PERICENTER": 297.8832, "MEAN_ANOMALY": 61.3459, "EPHEMERIS_TYPE": 0, "CLASSIFICATION_TYPE": "U", "NORAD_CAT_ID": 35434, "ELEMENT_SET_NO": 999, "REV_AT_EPOCH": 86022, "BSTAR": 0.0011383466, "MEAN_MOTION_DOT": 2.784e-05, "MEAN_MOTION_DDOT": 0}, "tle": {"line1": "1 35434U 93036AKC 25340.03677488  .00002784  00000+0  11383-2 0  9995", "line2": "2 35434  74.0405 225.7219 0087629 297.8832  61.3459 14.25656227860226"}}, "geometry": {"type": "Point", "coordinates": [36.60188938154251, 25.728940654920574]}}, {"type": "Feature", "properties": {"norad_id": 35435, "name": "COSMOS 2251 DEB", "group": "cosmos-2251-debris", "lat": -69.55333919495484, "lon": 65.67877154785424, "alt_km": 640.361794888252, "timestamp": "2025-12-06T16:45:43.117663+00:00", "meta": {"OBJECT_NAME": "COSMOS 2251 DEB", "OBJECT_ID": "1993-036AKD", "EPOCH": "2025-12-05T02:38:39.255648", "MEAN_MOTION": 14.78072342, "ECCENTRICITY": 0.00091016, "INCLINATION": 74.0102, "RA_OF_ASC_NODE": 119.0761, "ARG_OF_PERICENTER": 211.2048, "MEAN_ANOMALY": 263.7282, "EPHEMERIS_TYPE": 0, "CLASSIFICATION_TYPE": "U", "NORAD_CAT_ID": 35435, "ELEMENT_SET_NO": 999, "REV_AT_EPOCH": 87426, "BSTAR": 0.0046321505, "MEAN_MOTION_DOT": 0.00033645, "MEAN_MOTION_DDOT": 0}, "tle": {"line1": "1 35435U 93036AKD 25339.11017657  .00033645  00000+0  46322-2 0  9990", "line2": "2 35435  74.0102 119.0761 0009101 211.2048 263.7282 14.78072342874265"}}, "geometry": {"type": "Point", "coordinates": [65.67877154785424, -69.55333919495484]}}, {"type": "Feature", "properties": {"norad_id": 35439, "name": "COSMOS 2251 DEB", "group": "cosmos-2251-debris", "lat": -73.90937368847428, "lon": 48.48336871138082, "alt_km": 804.4160255042198, "timestamp": "2025-12-06T16:45:43.117673+00:00", "meta": {"OBJECT_NAME": "COSMOS 2251 DEB", "OBJECT_ID": "1993-036AKH", "EPOCH": "2025-12-06T05:59:35.063232", "MEAN_MOTION": 13.92766526, "ECCENTRICITY": 0.02419007, "INCLINATION": 74.0202, "RA_OF_ASC_NODE": 145.8594, "ARG_OF_PERICENTER": 316.5639, "MEAN_ANOMALY": 224.7042, "EPHEMERIS_TYPE": 0, "CLASSIFICATION_TYPE": "U", "NORAD_CAT_ID": 35439, "ELEMENT_SET_NO": 999, "REV_AT_EPOCH": 83870, "BSTAR": 0.0024796152, "MEAN_MOTION_DOT": 4.056e-05, "MEAN_MOTION_DDOT": 0}, "tle": {"line1": "1 35439U 93036AKH 25340.24971138  .00004056  00000+0  24796-2 0  9998", "line2": "2 35439  74.0202 145.8594 0241900 316.5639 224.7042 13.92766526838700"}}, "geometry": {"type": "Point", "coordinates": [48.48336871138082, -73.90937368847428]}}, {"type": "Feature", "properties": {"norad_id": 35440, "name": "COSMOS 2251 DEB", "group": "cosmos-2251-debris", "lat": 47.03915993168403, "lon": 21.407093693486704, "alt_km": 690.7251512374842, "timestamp": "2025-12-06T16:45:43.117683+00:00", "meta": {"OBJECT_NAME": "COSMOS 2251 DEB", "OBJECT_ID": "1993-036AKJ", "EPOCH": "2025-12-04T00:25:11.600832", "MEAN_MOTION": 14.68734875, "ECCENTRICITY": 0.0068957, "INCLINATION": 74.0159, "RA_OF_ASC_NODE": 224.5259, "ARG_OF_PERICENTER": 7.4237, "MEAN_ANOMALY": 352.7936, "EPHEMERIS_TYPE": 0, "CLASSIFICATION_TYPE": "U", "NORAD_CAT_ID": 35440, "ELEMENT_SET_NO": 999, "REV_AT_EPOCH": 68637, "BSTAR": 0.0010432053, "MEAN_MOTION_DOT": 6.276e-05, "MEAN_MOTION_DDOT": 0}, "tle": {"line1": "1 35440U 93036AKJ 25338.01749538  .00006276  00000+0  10432-2 0  9997", "line2": "2 35440  74.0159 224.5259 0068957   7.4237 352.7936 14.68734875686379"}}, "geometry": {"type": "Point", "coordinates": [21.407093693486704, 47.03915993168403]}}]}